[{"OBJECT_NAME":"STARLINK-3947","OBJECT_ID":"2022-052K","EPOCH":"2026-03-09T21:10:58.864800","MEAN_MOTION":15.08835543,"ECCENTRICITY":0.00013479,"INCLINATION":53.2166,"RA_OF_ASC_NODE":283.2667,"ARG_OF_PERICENTER":92.7035,"MEAN_ANOMALY":267.4112,"EPHEMERIS_TYPE":0,"CLASSIFICATION_TYPE":"U","NORAD_CAT_ID":52607,"ELEMENT_SET_NO":999,"REV_AT_EPOCH":21080,"BSTAR":5.0277452e-5,"MEAN_MOTION_DOT":5.12e-6,"MEAN_MOTION_DDOT":0},{"OBJECT_NAME":"LEMUR-2-TILLINFINITY","OBJECT_ID":"2025-061F","EPOCH":"2026-03-09T21:40:30.357696","MEAN_MOTION":15.139452,"ECCENTRICITY":0.00168906,"INCLINATION":97.5532,"RA_OF_ASC_NODE":45.5587,"ARG_OF_PERICENTER":226.702,"MEAN_ANOMALY":133.2804,"EPHEMERIS_TYPE":0,"CLASSIFICATION_TYPE":"U","NORAD_CAT_ID":63356,"ELEMENT_SET_NO":999,"REV_AT_EPOCH":5261,"BSTAR":0.00030453504,"MEAN_MOTION_DOT":5.472e-5,"MEAN_MOTION_DDOT":0}]
